STARLINK-30714          
1 57939U 23148E   26068.26817326 -.00000932  00000+0 -19342-4 0  9996
2 57939  53.1611  26.4425 0001068  87.7795 272.3328 15.30192407138352
NUSAT-50 (NANCY ROMAN)  
1 60493U 24149AB  26068.80227738  .00012094  00000+0  42252-3 0  9994
2 60493  97.3817 150.7693 0002523 238.0469 122.0527 15.29713355 86930
